[{"OBJECT_NAME":"STARLINK-31046","OBJECT_ID":"2023-192X","EPOCH":"2026-03-09T09:13:58.292544","MEAN_MOTION":15.30187773,"ECCENTRICITY":0.00012906,"INCLINATION":53.1612,"RA_OF_ASC_NODE":64.5084,"ARG_OF_PERICENTER":99.6987,"MEAN_ANOMALY":260.416,"EPHEMERIS_TYPE":0,"CLASSIFICATION_TYPE":"U","NORAD_CAT_ID":58552,"ELEMENT_SET_NO":999,"REV_AT_EPOCH":12593,"BSTAR":2.138889e-6,"MEAN_MOTION_DOT":-2.96e-6,"MEAN_MOTION_DDOT":0},{"OBJECT_NAME":"STRIX-4","OBJECT_ID":"2024-137A","EPOCH":"2026-03-09T15:41:49.501824","MEAN_MOTION":15.29026224,"ECCENTRICITY":0.00168396,"INCLINATION":43.0134,"RA_OF_ASC_NODE":129.8162,"ARG_OF_PERICENTER":5.2738,"MEAN_ANOMALY":354.8289,"EPHEMERIS_TYPE":0,"CLASSIFICATION_TYPE":"U","NORAD_CAT_ID":60352,"ELEMENT_SET_NO":999,"REV_AT_EPOCH":8876,"BSTAR":0.00071819834,"MEAN_MOTION_DOT":0.0002053,"MEAN_MOTION_DDOT":0}]
