STARLINK-31046          
1 58552U 23192X   26068.38470246 -.00000296  00000+0  21389-5 0  9993
2 58552  53.1612  64.5084 0001290  99.6987 260.4160 15.30187773125933
STRIX-4                 
1 60352U 24137A   26068.65404516  .00020530  00000+0  71820-3 0  9996
2 60352  43.0134 129.8162 0016840   5.2738 354.8289 15.29026223 88766
